COSMOS 2534 [GLONASS-M] 
1 44299U 19030A   26194.37380846  .00000078  00000+0  00000+0 0  9995
2 44299  64.3706 191.7347 0013548 275.0928 153.5502  2.13102101 55486
BEIDOU-3 IGSO-2         
1 44337U 19035A   26194.29948845 -.00000127  00000+0  00000+0 0  9999
2 44337  55.2503 158.6338 0039601 216.6143 142.3714  1.00258153 25924
NAVSTAR 78 (USA 293)    
1 44506U 19056A   26194.52259712 -.00000092  00000+0  00000+0 0  9995
2 44506  55.6228 330.0964 0063367 198.1416 125.2994  2.00569859 50594
BEIDOU-3 M24            
1 44542U 19061A   26194.01621877  .00000066  00000+0  00000+0 0  9990
2 44542  54.3975 181.8569 0008601 359.3910   0.5969  1.86229159 46278
BEIDOU-3 M23            
1 44543U 19061B   26194.41507322  .00000060  00000+0  00000+0 0  9997
2 44543  54.3959 181.8118 0005907 339.8983 198.9299  1.86227321 46288
EUTELSAT 5 WEST B       
1 44624U 19067A   26194.34614383 -.00000045  00000+0  00000+0 0  9995
2 44624   0.0622 355.1296 0002968 118.4870 297.2142  1.00271530 24694
BEIDOU-3 M22            
1 44793U 19078A   26194.39343167 -.00000062  00000+0  00000+0 0  9997
2 44793  53.9106 298.9058 0005750  50.3045 309.7753  1.86227300 45134
BEIDOU-3 M21            
1 44794U 19078B   26193.45936353 -.00000062  00000+0  00000+0 0  9999
2 44794  53.8852 298.8992 0003702  52.5088 307.5509  1.86227618 45120
COSMOS 2544 [GLONASS-M] 
1 44850U 19088A   26192.43092179 -.00000019  00000+0  00000+0 0  9991
2 44850  65.5782  72.9223 0012329 255.3827 104.5453  2.13103002 51235
BEIDOU-3 M19            
1 44864U 19090A   26194.51788525 -.00000039  00000+0  00000+0 0  9999
2 44864  56.5819  61.9211 0016853 297.7136 249.5540  1.86231187 44723
BEIDOU-3 M20            
1 44865U 19090B   26194.37201139 -.00000039  00000+0  00000+0 0  9995
2 44865  56.5830  61.9605 0014540 312.7537 226.2950  1.86231167 44701
BEIDOU-3 G2             
1 45344U 20017A   26194.50557887 -.00000145  00000+0  00000+0 0  9996
2 45344   2.9150  47.6951 0001993  60.6041  85.1250  1.00269225 23520
COSMOS 2545 [GLONASS-M] 
1 45358U 20018A   26191.68733521 -.00000061  00000+0  00000+0 0  9996
2 45358  64.3399 311.5938 0009429 230.3157 129.6087  2.13102541 49168
BEIDOU-3 G3             
1 45807U 20040A   26194.51155491 -.00000359  00000+0  00000+0 0  9999
2 45807   2.5086  67.4719 0001708 326.8334 191.6607  1.00264571 22332
NAVSTAR 79 (USA 304)    
1 45854U 20041A   26192.41369499 -.00000052  00000+0  00000+0 0  9994
2 45854  56.6842  28.0045 0064962 204.6177 333.3873  2.00557807 44521
GALAXY 30 (G-30)        
1 46114U 20056C   26194.47058735  .00000033  00000+0  00000+0 0  9994
2 46114   0.0176  36.3156 0001952  78.2750 221.1584  1.00271249 21554
COSMOS 2547 [GLONASS-K] 
1 46805U 20075A   26194.22336713  .00000081  00000+0  00000+0 0  9993
2 46805  64.6015 191.6065 0009458 240.0079 119.9159  2.13099927 44468
NAVSTAR 80 (USA 309)    
1 46826U 20078A   26193.94401521  .00000084  00000+0  00000+0 0  9990
2 46826  53.9776 209.7341 0074497 207.7475 332.4229  2.00564842 42028
NAVSTAR 81 (USA 319)    
1 48859U 21054A   26193.93300233 -.00000091  00000+0  00000+0 0  9999
2 48859  55.1610 331.4250 0026406 228.5393 130.0348  2.00567088 37265
QZS-1R (MICHIBIKI-1R)   
1 49336U 21096A   26193.57683811 -.00000300  00000+0  00000+0 0  9995
2 49336  37.5114  79.2075 0755009 272.2000 278.6576  1.00245962 17263
GSAT0223 (GALILEO 27)   
1 49809U 21116A   26193.80162081 -.00000091  00000+0  00000+0 0  9997
2 49809  57.1512 340.9841 0002430 195.8611 164.1379  1.70475864 28612
GSAT0224 (GALILEO 28)   
1 49810U 21116B   26194.50046551 -.00000094  00000+0  00000+0 0  9993
2 49810  57.1519 340.9637 0001862 181.9105 359.6169  1.70475939 28651
COSMOS 2557 [GLONASS-K] 
1 52984U 22075A   26194.38749594 -.00000064  00000+0  00000+0 0  9994
2 52984  64.2818 313.5628 0010791 271.6938  88.1892  2.13102257 31273
COSMOS 2559 [GLONASS-K] 
1 54031U 22130A   26193.73793028 -.00000064  00000+0  00000+0 0  9990
2 54031  64.2546 313.6678 0013055 180.7671 179.2365  2.13101618 29232
COSMOS 2564 [GLONASS-M] 
1 54377U 22161A   26194.05033981  .00000084  00000+0  00000+0 0  9999
2 54377  64.7437 191.8531 0012248 225.0211 134.8990  2.13101967 28180
NAVSTAR 82 (USA 343)    
1 55268U 23009A   26194.13224721  .00000010  00000+0  00000+0 0  9993
2 55268  55.1237 147.4991 0006208 321.2401 219.8383  2.00569666 25769
BEIDOU-3 G4             
1 56564U 23066A   26194.51744826 -.00000284  00000+0  00000+0 0  9995
2 56564   0.4616 338.4030 0004875 187.8799  91.4467  1.00272997 11650
NVS-01 (IRNSS-1J)       
1 56759U 23076A   26194.51611850 -.00000339  00000+0  00000+0 0  9993
2 56759   2.1058 243.1605 0003557   7.3151 356.1774  1.00265402 11384
COSMOS 2569 [GLONASS-K2]
1 57517U 23114A   26194.06264716 -.00000012  00000+0  00000+0 0  9992
2 57517  65.3169  71.7482 0009747 296.0877  63.8841  2.13103705 22817
BEIDOU-3 M28            
1 58654U 23207A   26194.07330709 -.00000042  00000+0  00000+0 0  9998
2 58654  55.7756  61.4299 0002480   3.8354 356.2375  1.86229628 17321
BEIDOU-3 M26            
1 58655U 23207B   26193.87080068 -.00000042  00000+0  00000+0 0  9996
2 58655  55.7779  61.4233 0002060 324.6713  35.3855  1.86229638 17309
